<?xml version="1.0" encoding="UTF-8"?>
<ndm xmlns:xsi="http://www.w3.org/2001/XMLSchema-instance" xsi:noNamespaceSchemaLocation="https://sanaregistry.org/r/ndmxml_unqualified/ndmxml-2.0.0-master-2.0.xsd">
<omm id="CCSDS_OMM_VERS" version="2.0">
<header><CREATION_DATE/><ORIGINATOR/></header><body><segment><metadata><OBJECT_NAME>ONEWEB-0137</OBJECT_NAME><OBJECT_ID>2020-100AB</OBJECT_ID><CENTER_NAME>EARTH</CENTER_NAME><REF_FRAME>TEME</REF_FRAME><TIME_SYSTEM>UTC</TIME_SYSTEM><MEAN_ELEMENT_THEORY>SGP4</MEAN_ELEMENT_THEORY></metadata><data><meanElements><EPOCH>2023-09-17T08:04:42.350592</EPOCH><MEAN_MOTION>13.12442530</MEAN_MOTION><ECCENTRICITY>.0001888</ECCENTRICITY><INCLINATION>87.9066</INCLINATION><RA_OF_ASC_NODE>190.2265</RA_OF_ASC_NODE><ARG_OF_PERICENTER>71.5613</ARG_OF_PERICENTER><MEAN_ANOMALY>288.5721</MEAN_ANOMALY></meanElements><tleParameters><EPHEMERIS_TYPE>0</EPHEMERIS_TYPE><CLASSIFICATION_TYPE>U</CLASSIFICATION_TYPE><NORAD_CAT_ID>47283</NORAD_CAT_ID><ELEMENT_SET_NO>999</ELEMENT_SET_NO><REV_AT_EPOCH>13289</REV_AT_EPOCH><BSTAR>.14514E-2</BSTAR><MEAN_MOTION_DOT>.535E-5</MEAN_MOTION_DOT><MEAN_MOTION_DDOT>0</MEAN_MOTION_DDOT></tleParameters></data></segment></body></omm>
<omm id="CCSDS_OMM_VERS" version="2.0">
<header><CREATION_DATE/><ORIGINATOR/></header><body><segment><metadata><OBJECT_NAME>ONEWEB-0138</OBJECT_NAME><OBJECT_ID>2020-100AC</OBJECT_ID><CENTER_NAME>EARTH</CENTER_NAME><REF_FRAME>TEME</REF_FRAME><TIME_SYSTEM>UTC</TIME_SYSTEM><MEAN_ELEMENT_THEORY>SGP4</MEAN_ELEMENT_THEORY></metadata><data><meanElements><EPOCH>2023-09-17T18:29:49.467552</EPOCH><MEAN_MOTION>13.12443108</MEAN_MOTION><ECCENTRICITY>.0002008</ECCENTRICITY><INCLINATION>87.9068</INCLINATION><RA_OF_ASC_NODE>190.1514</RA_OF_ASC_NODE><ARG_OF_PERICENTER>72.2246</ARG_OF_PERICENTER><MEAN_ANOMALY>287.9102</MEAN_ANOMALY></meanElements><tleParameters><EPHEMERIS_TYPE>0</EPHEMERIS_TYPE><CLASSIFICATION_TYPE>U</CLASSIFICATION_TYPE><NORAD_CAT_ID>47284</NORAD_CAT_ID><ELEMENT_SET_NO>999</ELEMENT_SET_NO><REV_AT_EPOCH>13303</REV_AT_EPOCH><BSTAR>-.5763E-3</BSTAR><MEAN_MOTION_DOT>-.195E-5</MEAN_MOTION_DOT><MEAN_MOTION_DDOT>0</MEAN_MOTION_DDOT></tleParameters></data></segment></body></omm>
<omm id="CCSDS_OMM_VERS" version="2.0">
<header><CREATION_DATE/><ORIGINATOR/></header><body><segment><metadata><OBJECT_NAME>ONEWEB-0139</OBJECT_NAME><OBJECT_ID>2020-100AD</OBJECT_ID><CENTER_NAME>EARTH</CENTER_NAME><REF_FRAME>TEME</REF_FRAME><TIME_SYSTEM>UTC</TIME_SYSTEM><MEAN_ELEMENT_THEORY>SGP4</MEAN_ELEMENT_THEORY></metadata><data><meanElements><EPOCH>2023-09-17T08:41:16.694592</EPOCH><MEAN_MOTION>13.12443727</MEAN_MOTION><ECCENTRICITY>.0002139</ECCENTRICITY><INCLINATION>87.9008</INCLINATION><RA_OF_ASC_NODE>190.2427</RA_OF_ASC_NODE><ARG_OF_PERICENTER>73.8704</ARG_OF_PERICENTER><MEAN_ANOMALY>286.2660</MEAN_ANOMALY></meanElements><tleParameters><EPHEMERIS_TYPE>0</EPHEMERIS_TYPE><CLASSIFICATION_TYPE>U</CLASSIFICATION_TYPE><NORAD_CAT_ID>47285</NORAD_CAT_ID><ELEMENT_SET_NO>999</ELEMENT_SET_NO><REV_AT_EPOCH>13305</REV_AT_EPOCH><BSTAR>-.54482E-3</BSTAR><MEAN_MOTION_DOT>-.183E-5</MEAN_MOTION_DOT><MEAN_MOTION_DDOT>0</MEAN_MOTION_DDOT></tleParameters></data></segment></body></omm>
<omm id="CCSDS_OMM_VERS" version="2.0">
<header><CREATION_DATE/><ORIGINATOR/></header><body><segment><metadata><OBJECT_NAME>ONEWEB-0140</OBJECT_NAME><OBJECT_ID>2020-100AE</OBJECT_ID><CENTER_NAME>EARTH</CENTER_NAME><REF_FRAME>TEME</REF_FRAME><TIME_SYSTEM>UTC</TIME_SYSTEM><MEAN_ELEMENT_THEORY>SGP4</MEAN_ELEMENT_THEORY></metadata><data><meanElements><EPOCH>2023-09-17T07:21:59.642784</EPOCH><MEAN_MOTION>13.12442995</MEAN_MOTION><ECCENTRICITY>.0002157</ECCENTRICITY><INCLINATION>87.9065</INCLINATION><RA_OF_ASC_NODE>190.2183</RA_OF_ASC_NODE><ARG_OF_PERICENTER>72.4390</ARG_OF_PERICENTER><MEAN_ANOMALY>287.6974</MEAN_ANOMALY></meanElements><tleParameters><EPHEMERIS_TYPE>0</EPHEMERIS_TYPE><CLASSIFICATION_TYPE>U</CLASSIFICATION_TYPE><NORAD_CAT_ID>47286</NORAD_CAT_ID><ELEMENT_SET_NO>999</ELEMENT_SET_NO><REV_AT_EPOCH>13301</REV_AT_EPOCH><BSTAR>-.57778E-3</BSTAR><MEAN_MOTION_DOT>-.195E-5</MEAN_MOTION_DOT><MEAN_MOTION_DDOT>0</MEAN_MOTION_DDOT></tleParameters></data></segment></body></omm>
<omm id="CCSDS_OMM_VERS" version="2.0">
<header><CREATION_DATE/><ORIGINATOR/></header><body><segment><metadata><OBJECT_NAME>ONEWEB-0141</OBJECT_NAME><OBJECT_ID>2020-100AF</OBJECT_ID><CENTER_NAME>EARTH</CENTER_NAME><REF_FRAME>TEME</REF_FRAME><TIME_SYSTEM>UTC</TIME_SYSTEM><MEAN_ELEMENT_THEORY>SGP4</MEAN_ELEMENT_THEORY></metadata><data><meanElements><EPOCH>2023-09-17T07:54:00.217152</EPOCH><MEAN_MOTION>13.12445275</MEAN_MOTION><ECCENTRICITY>.0001614</ECCENTRICITY><INCLINATION>87.9065</INCLINATION><RA_OF_ASC_NODE>190.2108</RA_OF_ASC_NODE><ARG_OF_PERICENTER>79.4539</ARG_OF_PERICENTER><MEAN_ANOMALY>280.6771</MEAN_ANOMALY></meanElements><tleParameters><EPHEMERIS_TYPE>0</EPHEMERIS_TYPE><CLASSIFICATION_TYPE>U</CLASSIFICATION_TYPE><NORAD_CAT_ID>47287</NORAD_CAT_ID><ELEMENT_SET_NO>999</ELEMENT_SET_NO><REV_AT_EPOCH>13300</REV_AT_EPOCH><BSTAR>.13694E-2</BSTAR><MEAN_MOTION_DOT>.505E-5</MEAN_MOTION_DOT><MEAN_MOTION_DDOT>0</MEAN_MOTION_DDOT></tleParameters></data></segment></body></omm>
<omm id="CCSDS_OMM_VERS" version="2.0">
<header><CREATION_DATE/><ORIGINATOR/></header><body><segment><metadata><OBJECT_NAME>ONEWEB-0142</OBJECT_NAME><OBJECT_ID>2020-100AG</OBJECT_ID><CENTER_NAME>EARTH</CENTER_NAME><REF_FRAME>TEME</REF_FRAME><TIME_SYSTEM>UTC</TIME_SYSTEM><MEAN_ELEMENT_THEORY>SGP4</MEAN_ELEMENT_THEORY></metadata><data><meanElements><EPOCH>2023-09-17T07:41:48.562944</EPOCH><MEAN_MOTION>13.12440230</MEAN_MOTION><ECCENTRICITY>.0001867</ECCENTRICITY><INCLINATION>87.8932</INCLINATION><RA_OF_ASC_NODE>190.2296</RA_OF_ASC_NODE><ARG_OF_PERICENTER>69.7731</ARG_OF_PERICENTER><MEAN_ANOMALY>290.3598</MEAN_ANOMALY></meanElements><tleParameters><EPHEMERIS_TYPE>0</EPHEMERIS_TYPE><CLASSIFICATION_TYPE>U</CLASSIFICATION_TYPE><NORAD_CAT_ID>47288</NORAD_CAT_ID><ELEMENT_SET_NO>999</ELEMENT_SET_NO><REV_AT_EPOCH>13299</REV_AT_EPOCH><BSTAR>.66724E-3</BSTAR><MEAN_MOTION_DOT>.253E-5</MEAN_MOTION_DOT><MEAN_MOTION_DDOT>0</MEAN_MOTION_DDOT></tleParameters></data></segment></body></omm>
<omm id="CCSDS_OMM_VERS" version="2.0">
<header><CREATION_DATE/><ORIGINATOR/></header><body><segment><metadata><OBJECT_NAME>ONEWEB-0143</OBJECT_NAME><OBJECT_ID>2020-100AH</OBJECT_ID><CENTER_NAME>EARTH</CENTER_NAME><REF_FRAME>TEME</REF_FRAME><TIME_SYSTEM>UTC</TIME_SYSTEM><MEAN_ELEMENT_THEORY>SGP4</MEAN_ELEMENT_THEORY></metadata><data><meanElements><EPOCH>2023-09-17T08:26:01.001472</EPOCH><MEAN_MOTION>13.12443203</MEAN_MOTION><ECCENTRICITY>.0001954</ECCENTRICITY><INCLINATION>87.9066</INCLINATION><RA_OF_ASC_NODE>190.2179</RA_OF_ASC_NODE><ARG_OF_PERICENTER>77.2025</ARG_OF_PERICENTER><MEAN_ANOMALY>282.9322</MEAN_ANOMALY></meanElements><tleParameters><EPHEMERIS_TYPE>0</EPHEMERIS_TYPE><CLASSIFICATION_TYPE>U</CLASSIFICATION_TYPE><NORAD_CAT_ID>47289</NORAD_CAT_ID><ELEMENT_SET_NO>999</ELEMENT_SET_NO><REV_AT_EPOCH>13297</REV_AT_EPOCH><BSTAR>.54431E-3</BSTAR><MEAN_MOTION_DOT>.209E-5</MEAN_MOTION_DOT><MEAN_MOTION_DDOT>0</MEAN_MOTION_DDOT></tleParameters></data></segment></body></omm>
<omm id="CCSDS_OMM_VERS" version="2.0">
<header><CREATION_DATE/><ORIGINATOR/></header><body><segment><metadata><OBJECT_NAME>ONEWEB-0144</OBJECT_NAME><OBJECT_ID>2020-100AJ</OBJECT_ID><CENTER_NAME>EARTH</CENTER_NAME><REF_FRAME>TEME</REF_FRAME><TIME_SYSTEM>UTC</TIME_SYSTEM><MEAN_ELEMENT_THEORY>SGP4</MEAN_ELEMENT_THEORY></metadata><data><meanElements><EPOCH>2023-09-17T07:46:22.453536</EPOCH><MEAN_MOTION>13.12445332</MEAN_MOTION><ECCENTRICITY>.0002041</ECCENTRICITY><INCLINATION>87.8997</INCLINATION><RA_OF_ASC_NODE>190.2234</RA_OF_ASC_NODE><ARG_OF_PERICENTER>61.5959</ARG_OF_PERICENTER><MEAN_ANOMALY>298.5375</MEAN_ANOMALY></meanElements><tleParameters><EPHEMERIS_TYPE>0</EPHEMERIS_TYPE><CLASSIFICATION_TYPE>U</CLASSIFICATION_TYPE><NORAD_CAT_ID>47290</NORAD_CAT_ID><ELEMENT_SET_NO>999</ELEMENT_SET_NO><REV_AT_EPOCH>13289</REV_AT_EPOCH><BSTAR>.96191E-3</BSTAR><MEAN_MOTION_DOT>.359E-5</MEAN_MOTION_DOT><MEAN_MOTION_DDOT>0</MEAN_MOTION_DDOT></tleParameters></data></segment></body></omm>
<omm id="CCSDS_OMM_VERS" version="2.0">
<header><CREATION_DATE/><ORIGINATOR/></header><body><segment><metadata><OBJECT_NAME>ONEWEB-0145</OBJECT_NAME><OBJECT_ID>2020-100AK</OBJECT_ID><CENTER_NAME>EARTH</CENTER_NAME><REF_FRAME>TEME</REF_FRAME><TIME_SYSTEM>UTC</TIME_SYSTEM><MEAN_ELEMENT_THEORY>SGP4</MEAN_ELEMENT_THEORY></metadata><data><meanElements><EPOCH>2023-09-17T07:03:41.082336</EPOCH><MEAN_MOTION>13.12440955</MEAN_MOTION><ECCENTRICITY>.0001914</ECCENTRICITY><INCLINATION>87.9064</INCLINATION><RA_OF_ASC_NODE>190.2359</RA_OF_ASC_NODE><ARG_OF_PERICENTER>72.4285</ARG_OF_PERICENTER><MEAN_ANOMALY>287.7053</MEAN_ANOMALY></meanElements><tleParameters><EPHEMERIS_TYPE>0</EPHEMERIS_TYPE><CLASSIFICATION_TYPE>U</CLASSIFICATION_TYPE><NORAD_CAT_ID>47291</NORAD_CAT_ID><ELEMENT_SET_NO>999</ELEMENT_SET_NO><REV_AT_EPOCH>13308</REV_AT_EPOCH><BSTAR>.1011E-3</BSTAR><MEAN_MOTION_DOT>.49E-6</MEAN_MOTION_DOT><MEAN_MOTION_DDOT>0</MEAN_MOTION_DDOT></tleParameters></data></segment></body></omm>

</ndm>
